#aV2008  5 21  0  0   .00000000      96 DD+AD WGS84 FIT  NGA
## 1480 259200.00000000   900.00000000 54607  .0000000000000
+   31     2  3  4  5  6  7  8  9 10 11 12 13 14 15 16 17 18
+         19 20 21 22 23 24 25 26 27 28 29 30 31 32  0  0  0
+          0  0  0  0  0  0  0  0  0  0  0  0  0  0  0  0  0
+          0  0  0  0  0  0  0  0  0  0  0  0  0  0  0  0  0
+          0  0  0  0  0  0  0  0  0  0  0  0  0  0  0  0  0
++         0  0  0  0  0  0  0  0  0  0  0  0  0  0  0  0  0
++         0  0  0  0  0  0  0  0  0  0  0  0  0  0  0  0  0
++         0  0  0  0  0  0  0  0  0  0  0  0  0  0  0  0  0
++         0  0  0  0  0  0  0  0  0  0  0  0  0  0  0  0  0
++         0  0  0  0  0  0  0  0  0  0  0  0  0  0  0  0  0
%c cc cc ccc ccc cccc cccc cccc cccc ccccc ccccc ccccc ccccc
%c cc cc ccc ccc cccc cccc cccc cccc ccccc ccccc ccccc ccccc
%f  0.0000000  0.000000000  0.00000000000  0.000000000000000
%f  0.0000000  0.000000000  0.00000000000  0.000000000000000
%i    0    0    0    0      0      0      0      0         0
%i    0    0    0    0      0      0      0      0         0
/*      NGA, ST. LOUIS,MO.                                  
/*   EPHEMERIS COMPUTED FROM  3 DAYS OF DATA                
/* CCCCCCCCCCCCCCCCCCCCCCCCCCCCCCCCCCCCCCCCCCCCCCCCCCCCCCCCC
/* CCCCCCCCCCCCCCCCCCCCCCCCCCCCCCCCCCCCCCCCCCCCCCCCCCCCCCCCC
*  2008  5 21  4 15   .00000000                                                 
P  2 -15763.201103  -2093.550194 -21399.885281    204.311460                    
V  2   8838.409409 -25417.057412  -4406.011199       .022264                    
P  3  21523.210106   6365.549629  14208.705440    231.043344                    
V  3  11109.336685  14968.171522 -22765.521014       .052916                    
P  4 -10561.631565 -13435.403583 -20343.654302    -72.058991                    
V  4  10636.743635 -23504.667779  10408.530743      -.086012                    
P  5 -15279.040359  15457.954191 -15436.173584    777.564250                    
V  5 -19229.803851   2418.193712  21981.366888       .092826                    
P  6  20873.956769  14144.980672   8529.805302    131.972467                    
V  6   4504.616777  10194.261030 -28552.854290       .085999                    
P  7   6949.740606 -25322.186549   3714.856643    -38.254792                    
V  7   4305.822722  -3443.636505 -31372.809176       .089032                    
P  8  -1811.297629 -21222.566437  15471.043810   -153.897771                    
V  8   9769.899027 -17479.161551 -23166.359580      -.016690                    
P  9 -14054.670138  19697.645392  10129.605151    125.424730                    
V  9   2135.725487 -13890.097964  28391.964504       .016939                    
P 10 -26368.162916    323.209186  -4552.052692     -1.660505                    
V 10   5191.206618  -3089.492487 -30915.242308      -.002034                    
P 11  11321.907348 -22008.814320   9037.022049     25.458068                    
V 11   2598.957129  12579.722865  27258.717889      -.003415                    
P 12 -20160.925208  11874.629887 -12385.278075   -359.092705                    
V 12 -16075.091607    154.007169  26213.141132       .001278                    
P 13  -2628.890393 -21120.646399 -16022.224517    256.240483                    
V 13  12798.984517  15472.809175 -22642.355166       .016900                    
P 14  15214.870863  21779.910175   1679.153534   -264.485068                    
V 14  -2664.208623   -484.747498  32209.458017       .042062                    
P 15 -16592.186991   2692.401878  20585.844079   -114.161824                    
V 15 -15945.123387 -20690.139337 -10145.812940      -.057043                    
P 16  24858.211103   2886.191848  -9118.752516    124.381881                    
V 16 -11185.927234   3886.479374 -28829.500543      -.014309                    
P 17 -15637.552059 -21527.090996   1541.306292     38.969557                    
V 17   3316.066593   -199.162946  31534.537798      -.002440                    
P 18  -1960.181722  15751.238428  21435.956263   -175.904947                    
V 18 -26771.998619   2637.146132  -4781.019452       .038399                    
P 19  16318.370010  -2423.115578  20938.332904     30.295057                    
V 19  14557.632267  21988.781859  -8655.437981       .008688                    
P 20  18398.361750 -13346.167969 -13823.443395    113.908934                    
V 20  17574.428905   -578.717345  24196.256764      -.008448                    
P 21  -2768.307810  24490.830888   9230.188704     63.702609                    
V 21  -7861.925578   9412.070106 -28498.945958      -.011148                    
P 22  13183.202413  12623.956085  19464.755231    211.168829                    
V 22 -24106.738223   4169.505548  13677.687096       .002874                    
P 23   8394.405611 -13090.625712 -21570.714112    354.868086                    
V 23  17508.820747  20859.097448  -6101.900608       .021762                    
P 24 -12984.303517  23043.324382  -3562.531213     95.461636                    
V 24   -650.536412  -5426.521725 -30982.459470       .030854                    
P 25   9236.404648 -24741.293059  -3273.652567   -165.644569                    
V 25   1219.591745   5090.869847 -31372.813028      -.264584                    
P 26 -17785.241660  -3039.011307  19197.707962    257.611816                    
V 26 -14364.218101 -20685.638366 -15647.541187       .079029                    
P 27   3509.896292 -25619.774918   6374.764936    189.863682                    
V 27   4521.674212  -6177.470044 -30675.921603       .026013                    
P 28 -11357.170750 -12990.784713  20664.281344    -19.205512                    
V 28  24970.431930  -4015.096435  11084.968834      -.003643                    
P 29   -318.517189  19751.572469 -17647.414567    -43.066405                    
V 29 -15224.975019 -16843.891167 -18422.616386       .001221                    
P 30  -8261.034949  16100.777663 -19748.613162     77.390681                    
V 30 -24206.150907   3488.025696  13297.170368       .018368                    
P 31  10918.349273  11800.012313 -20918.796972    -20.589079                    
V 31 -10325.823894  24996.706169   8732.917743      -.013743                    
P 32  26411.099236  -1805.259873    194.517569    287.720979                    
V 32    462.537514   2668.191170  32051.038461       .051438                    
EOF
